*******************************************************************************
JPL/HORIZONS                2414 Vibeke (1931 UG)          2023-Sep-04 11:17:47
Rec #:    2414 (+COV) Soln.date: 2023-Aug-22_20:59:46   # obs: 5562 (1931-2023)
 
IAU76/J2000 helio. ecliptic osc. elements (au, days, deg., period=Julian yrs):
 
  EPOCH=  2457870.5 ! 2017-Apr-27.00 (TDB)         Residual RMS= .24437
   EC= .1291238518539708   QR= 2.785281761676306   TP= 2458237.451857795
   OM= 357.0484818746232   W=  47.21343761997944   IN= 16.7569647657179
   A= 3.198252435327081    MA= 296.7669608331312   ADIST= 3.611223108977856
   PER= 5.71975            N= .172319714           ANGMOM= .030506108
   DAN= 2.89133            DDN= 3.44729            L= 43.0208598
   B= 12.2155202           MOID= 1.81708002        TP= 2018-Apr-28.9518577950
 
Asteroid physical parameters (km, seconds, rotational period in hours):
   GM= n.a.                RAD= 15.891             ROTPER= n.a.
   H= 11.64                G= .150                 B-V= n.a.
                           ALBEDO= .037            STYP= n.a.

ASTEROID comments: 
1: soln ref.= JPL#51, OCC=0
2: source=ORB
*******************************************************************************


*******************************************************************************
Ephemeris / API_USER Mon Sep  4 11:17:47 2023 Pasadena, USA      / Horizons
*******************************************************************************
Target body name: 2414 Vibeke (1931 UG)           {source: JPL#51}
Center body name: Solar System Barycenter (0)     {source: DE441}
Center-site name: BODY CENTER
*******************************************************************************
Start time      : A.D. 2023-Aug-12 00:00:00.0000 TDB
Stop  time      : A.D. 2023-Aug-13 00:00:00.0000 TDB
Step-size       : 2880 minutes
*******************************************************************************
Center geodetic : 0.0, 0.0, 0.0                   {E-lon(deg),Lat(deg),Alt(km)}
Center cylindric: 0.0, 0.0, 0.0                   {E-lon(deg),Dxy(km),Dz(km)}
Center radii    : (undefined)
Small perturbers: Yes                             {source: SB441-N16}
Output units    : KM-S
Calendar mode   : Mixed Julian/Gregorian
Output type     : GEOMETRIC cartesian states
Output format   : 2 (position and velocity)
Reference frame : Ecliptic of J2000.0
*******************************************************************************
Initial IAU76/J2000 heliocentric ecliptic osculating elements (au, days, deg.):
  EPOCH=  2457870.5 ! 2017-Apr-27.00 (TDB)         Residual RMS= .24437        
   EC= .1291238518539708   QR= 2.785281761676306   TP= 2458237.451857795       
   OM= 357.0484818746232   W=  47.21343761997944   IN= 16.7569647657179        
  Equivalent ICRF heliocentric cartesian coordinates (au, au/d):
   X= 2.566261462560771E+00  Y=-1.295375402996232E+00  Z=-1.043852741847775E+00
  VX= 4.398505861646466E-03 VY= 6.861598303464840E-03 VZ= 5.878895192531809E-03
Asteroid physical parameters (km, seconds, rotational period in hours):        
   GM= n.a.                RAD= 15.891             ROTPER= n.a.                
   H= 11.64                G= .150                 B-V= n.a.                   
                           ALBEDO= .037            STYP= n.a.                  
*******************************************************************************
JDTDB
   X     Y     Z
   VX    VY    VZ
*******************************************************************************
$$SOE
2460168.500000000 = A.D. 2023-Aug-12 00:00:00.0000 TDB 
 X = 4.170297896010362E+08 Y = 6.619952792239913E+07 Z = 2.652686196328624E+07
 VX=-4.319095960163306E+00 VY= 1.738776616547977E+01 VZ= 5.164479677273937E+00
$$EOE
*******************************************************************************
 
TIME

  Barycentric Dynamical Time ("TDB" or T_eph) output was requested. This
continuous coordinate time is equivalent to the relativistic proper time
of a clock at rest in a reference frame co-moving with the solar system
barycenter but outside the system's gravity well. It is the independent
variable in the solar system relativistic equations of motion.

  TDB runs at a uniform rate of one SI second per second and is independent
of irregularities in Earth's rotation.
 
CALENDAR SYSTEM

  Mixed calendar mode was active such that calendar dates after AD 1582-Oct-15
(if any) are in the modern Gregorian system. Dates prior to 1582-Oct-5 (if any)
are in the Julian calendar system, which is automatically extended for dates
prior to its adoption on 45-Jan-1 BC.  The Julian calendar is useful for
matching historical dates. The Gregorian calendar more accurately corresponds
to the Earth's orbital motion and seasons. A "Gregorian-only" calendar mode is
available if such physical events are the primary interest.

REFERENCE FRAME AND COORDINATES

  Ecliptic at the standard reference epoch

    Reference epoch: J2000.0
    X-Y plane: adopted Earth orbital plane at the reference epoch
               Note: IAU76 obliquity of 84381.448 arcseconds wrt ICRF X-Y plane
    X-axis   : ICRF
    Z-axis   : perpendicular to the X-Y plane in the directional (+ or -) sense
               of Earth's north pole at the reference epoch.

  Symbol meaning:

    JDTDB    Julian Day Number, Barycentric Dynamical Time
      X      X-component of position vector (km)
      Y      Y-component of position vector (km)
      Z      Z-component of position vector (km)
      VX     X-component of velocity vector (km/sec)                           
      VY     Y-component of velocity vector (km/sec)                           
      VZ     Z-component of velocity vector (km/sec)                           

ABERRATIONS AND CORRECTIONS

 Geometric state vectors have NO corrections or aberrations applied.

Computations by ...

    Solar System Dynamics Group, Horizons On-Line Ephemeris System
    4800 Oak Grove Drive, Jet Propulsion Laboratory
    Pasadena, CA  91109   USA

    General site: https://ssd.jpl.nasa.gov/
    Mailing list: https://ssd.jpl.nasa.gov/email_list.html
    System news : https://ssd.jpl.nasa.gov/horizons/news.html
    User Guide  : https://ssd.jpl.nasa.gov/horizons/manual.html
    Connect     : browser        https://ssd.jpl.nasa.gov/horizons/app.html#/x
                  API            https://ssd-api.jpl.nasa.gov/doc/horizons.html
                  command-line   telnet ssd.jpl.nasa.gov 6775
                  e-mail/batch   https://ssd.jpl.nasa.gov/ftp/ssd/hrzn_batch.txt
                  scripts        https://ssd.jpl.nasa.gov/ftp/ssd/SCRIPTS
    Author      : Jon.D.Giorgini@jpl.nasa.gov
*******************************************************************************
